[{"OBJECT_NAME":"STARLINK-3124","OBJECT_ID":"2021-104BA","EPOCH":"2026-03-09T17:44:58.844544","MEAN_MOTION":15.08842878,"ECCENTRICITY":0.00013285,"INCLINATION":53.2165,"RA_OF_ASC_NODE":218.9468,"ARG_OF_PERICENTER":95.9427,"MEAN_ANOMALY":264.1717,"EPHEMERIS_TYPE":0,"CLASSIFICATION_TYPE":"U","NORAD_CAT_ID":49456,"ELEMENT_SET_NO":999,"REV_AT_EPOCH":23878,"BSTAR":-0.00021767928,"MEAN_MOTION_DOT":-3.751e-5,"MEAN_MOTION_DDOT":0},{"OBJECT_NAME":"CZ-4B DEB","OBJECT_ID":"2008-053J","EPOCH":"2026-03-09T11:59:22.469568","MEAN_MOTION":15.1637526,"ECCENTRICITY":0.00601661,"INCLINATION":97.7872,"RA_OF_ASC_NODE":170.5072,"ARG_OF_PERICENTER":304.792,"MEAN_ANOMALY":54.7659,"EPHEMERIS_TYPE":0,"CLASSIFICATION_TYPE":"U","NORAD_CAT_ID":35573,"ELEMENT_SET_NO":999,"REV_AT_EPOCH":91868,"BSTAR":0.0017688276,"MEAN_MOTION_DOT":0.00036031,"MEAN_MOTION_DDOT":0}]
